[{"OBJECT_NAME":"STARLINK-34963","OBJECT_ID":"2025-179H","EPOCH":"2026-03-09T16:54:12.774528","MEAN_MOTION":15.05654928,"ECCENTRICITY":0.00025698,"INCLINATION":97.6023,"RA_OF_ASC_NODE":113.0284,"ARG_OF_PERICENTER":120.1192,"MEAN_ANOMALY":240.0289,"EPHEMERIS_TYPE":0,"CLASSIFICATION_TYPE":"U","NORAD_CAT_ID":65242,"ELEMENT_SET_NO":999,"REV_AT_EPOCH":3197,"BSTAR":0.00038689906,"MEAN_MOTION_DOT":5.527e-5,"MEAN_MOTION_DDOT":0},{"OBJECT_NAME":"CZ-6A DEB","OBJECT_ID":"2024-140WE","EPOCH":"2026-03-09T15:35:26.811168","MEAN_MOTION":14.69407042,"ECCENTRICITY":0.0170896,"INCLINATION":89.1194,"RA_OF_ASC_NODE":289.5546,"ARG_OF_PERICENTER":162.1141,"MEAN_ANOMALY":198.6195,"EPHEMERIS_TYPE":0,"CLASSIFICATION_TYPE":"U","NORAD_CAT_ID":61365,"ELEMENT_SET_NO":999,"REV_AT_EPOCH":8091,"BSTAR":0.00023823,"MEAN_MOTION_DOT":1.788e-5,"MEAN_MOTION_DDOT":0}]
